ORBCOMM FM05            
1 25117U 97084F   25030.75954041  .00003288  00000+0  97229-3 0  9991
2 25117  45.0154 307.5188 0001741 279.5462  80.5192 14.45078076420729
ORBCOMM FM06            
1 25118U 97084G   25030.77093762  .00003315  00000+0  97655-3 0  9992
2 25118  45.0147 307.3661 0001188 314.5210  74.7649 14.45246156421642
ORBCOMM FM07            
1 25119U 97084H   25030.77591662  .00003616  00000+0  10633-2 0  9999
2 25119  45.0141 308.0842 0002199 260.0366 100.0237 14.45171168421631
ORBCOMM FM03            
1 25158U 98007B   25030.44589090  .00002362  00000+0  88328-3 0  9998
2 25158 107.9689 212.7414 0044114 132.0437 228.4469 14.33924696404299
ORBCOMM FM04            
1 25159U 98007C   25030.45466606  .00002599  00000+0  96375-3 0  9990
2 25159 107.9676 215.8864 0039727 129.5777 230.8881 14.34190123404477
ORBCOMM FM17            
1 25413U 98046A   25030.47270627  .00002505  00000+0  92806-3 0  9996
2 25413  44.9923 187.3306 0003353 222.1397 137.9192 14.34588860383560
ORBCOMM FM18            
1 25414U 98046B   25030.47070389  .00003097  00000+0  10637-2 0  9998
2 25414  44.9924 108.3264 0006014 286.9581  73.0608 14.37852169384425
ORBCOMM FM19            
1 25415U 98046C   25030.63719409  .00002988  00000+0  10318-2 0  9994
2 25415  44.9934 109.3205 0005036 277.5958 236.0743 14.37665107384403
